ONEWEB-0211             
1 48767U 21045A   26200.57541106 -.00000068  00000+0 -21195-3 0  9999
2 48767  87.8984 252.6220 0002711 102.3929 257.7505 13.16197646248700
ONEWEB-0223             
1 48768U 21045B   26200.21340803  .00000296  00000+0  75257-3 0  9991
2 48768  87.8984 252.8104 0002413 107.3599 252.7796 13.15547692248617
ONEWEB-0230             
1 48769U 21045C   26200.56517296 -.00000116  00000+0 -34304-3 0  9993
2 48769  87.8982 252.7524 0001893  96.1093 264.0253 13.15548250248925
ONEWEB-0237             
1 48770U 21045D   26200.55407706 -.00000093  00000+0 -28190-3 0  9998
2 48770  87.8978 252.7555 0002340  93.1029 267.0369 13.15548458248640
ONEWEB-0235             
1 48771U 21045E   26200.22447759  .00000015  00000+0  63604-5 0  9998
2 48771  87.8990 252.8100 0002274 107.7211 252.4168 13.15549954248594
ONEWEB-0242             
1 48772U 21045F   26200.44633320  .00000114  00000+0  26903-3 0  9993
2 48772  87.8990 252.7632 0001965 102.8793 257.2557 13.15548644248669
ONEWEB-0241             
1 48773U 21045G   26200.58580457  .00000060  00000+0  12630-3 0  9993
2 48773  87.8975 252.7502 0002378 103.6126 256.5269 13.15539667248596
ONEWEB-0243             
1 48774U 21045H   26200.54138330 -.00000008  00000+0 -56615-4 0  9995
2 48774  87.8982 252.7716 0001904 112.6427 247.4905 13.15550923248617
ONEWEB-0222             
1 48775U 21045J   26200.44870835  .00000246  00000+0  61947-3 0  9993
2 48775  87.8982 252.7600 0002347  96.1116 264.0282 13.15546944248647
ONEWEB-0244             
1 48776U 21045K   26200.17062520 -.00000033  00000+0 -12232-3 0  9997
2 48776  87.8994 252.8119 0002093 100.8078 259.3288 13.15548727249178
ONEWEB-0247             
1 48777U 21045L   26200.54772364 -.00000048  00000+0 -16105-3 0  9992
2 48777  87.8984 252.7647 0002222 119.3299 240.8053 13.15546892248666
ONEWEB-0245             
1 48778U 21045M   26200.16268617  .00000000  00000+0 -33322-4 0  9990
2 48778  87.8989 252.8233 0002248  98.3187 261.8198 13.15549668248582
ONEWEB-0229             
1 48779U 21045N   26200.38612086 -.00000028  00000+0 -10905-3 0  9990
2 48779  87.8993 252.7775 0001932  98.3552 261.7797 13.15548455248647
ONEWEB-0228             
1 48780U 21045P   26200.19135263 -.00000022  00000+0 -91445-4 0  9991
2 48780  87.8993 252.8102 0002159 100.8641 259.2733 13.15548752248534
ONEWEB-0232             
1 48781U 21045Q   26200.39404710 -.00000056  00000+0 -18338-3 0  9996
2 48781  87.8992 252.7696 0002170  96.9239 263.2138 13.15548018248889
ONEWEB-0231             
1 48782U 21045R   26200.60003328 -.00000442  00000+0 -12080-2 0  9997
2 48782  87.8976 252.7400 0002719 111.3657 248.7764 13.15552020248601
ONEWEB-0234             
1 48783U 21045S   26200.18158062 -.00000047  00000+0 -15769-3 0  9996
2 48783  87.8994 252.8059 0002662  82.8851 277.2582 13.15547818248680
ONEWEB-0238             
1 48784U 21045T   26200.41000841 -.00000142  00000+0 -41182-3 0  9998
2 48784  87.8995 252.7569 0002339  88.6413 271.4985 13.15548590248610
ONEWEB-0240             
1 48785U 21045U   26200.20309755  .00000134  00000+0  32178-3 0  9996
2 48785  87.8990 252.8073 0002373 101.1317 259.0081 13.15549109248615
ONEWEB-0246             
1 48786U 21045V   26200.42573357  .00000041  00000+0  75914-4 0  9995
2 48786  87.8989 252.7664 0002011  99.1669 260.9688 13.15547879248519
ONEWEB-0210             
1 48787U 21045W   26200.40037991 -.00000126  00000+0 -36907-3 0  9997
2 48787  87.8991 252.7690 0001941 122.0165 238.1155 13.15548212248552
ONEWEB-0214             
1 48788U 21045X   26200.56120264 -.00000139  00000+0 -40449-3 0  9991
2 48788  87.8991 252.7342 0001742 101.9953 258.1373 13.15546888248547
ONEWEB-0221             
1 48789U 21045Y   26200.56834335 -.00000083  00000+0 -25476-3 0  9994
2 48789  87.8989 252.7411 0002168 101.3630 258.7744 13.15548172248637
ONEWEB-0213             
1 48790U 21045Z   26200.55724784 -.00000139  00000+0 -40201-3 0  9996
2 48790  87.8989 252.7462 0002141 105.1363 255.0005 13.15548437248691
ONEWEB-0212             
1 48791U 21045AA  26200.38215275 -.00000008  00000+0 -55087-4 0  9992
2 48791  87.8991 252.7753 0002040  97.0127 263.1236 13.15546775248669
ONEWEB-0227             
1 48792U 21045AB  26200.15319506  .00000058  00000+0  11883-3 0  9998
2 48792  87.8991 252.8211 0002097  99.0648 261.0720 13.15547846248588
ONEWEB-0226             
1 48793U 21045AC  26200.22291449  .00000134  00000+0  32112-3 0  9995
2 48793  87.8987 252.8115 0001990 103.3266 256.8086 13.15547151248567
ONEWEB-0224             
1 48794U 21045AD  26200.41464276 -.00000041  00000+0 -14350-3 0  9990
2 48794  87.8979 252.8058 0002950  93.9238 266.2229 13.15548789248512
ONEWEB-0233             
1 48795U 21045AE  26200.19107212  .00000011  00000+0 -45685-5 0  9993
2 48795  87.8978 252.8575 0002291 102.4748 257.6639 13.15550642248505
ONEWEB-0190             
1 48796U 21045AF  26200.55883075 -.00000154  00000+0 -44319-3 0  9992
2 48796  87.8986 252.7478 0002384 113.1882 246.9500 13.15548514248623
