OBJECT_NAME,OBJECT_ID,EPOCH,MEAN_MOTION,ECCENTRICITY,INCLINATION,RA_OF_ASC_NODE,ARG_OF_PERICENTER,MEAN_ANOMALY,EPHEMERIS_TYPE,CLASSIFICATION_TYPE,NORAD_CAT_ID,ELEMENT_SET_NO,REV_AT_EPOCH,BSTAR,MEAN_MOTION_DOT,MEAN_MOTION_DDOT
ONEWEB-0211,2021-045A,2026-07-19T13:48:35.515584,13.16197646,.00027111,87.8984,252.6220,102.3929,257.7505,0,U,48767,999,24870,-.21194884E-3,-.68E-6,0
ONEWEB-0223,2021-045B,2026-07-19T05:07:18.453792,13.15547692,.00024139,87.8984,252.8104,107.3599,252.7796,0,U,48768,999,24861,.75257189E-3,.296E-5,0
ONEWEB-0230,2021-045C,2026-07-19T13:33:50.943744,13.15548250,.00018936,87.8982,252.7524,96.1093,264.0253,0,U,48769,999,24892,-.34304335E-3,-.116E-5,0
ONEWEB-0237,2021-045D,2026-07-19T13:17:52.257984,13.15548458,.00023404,87.8978,252.7555,93.1029,267.0369,0,U,48770,999,24864,-.2818991E-3,-.93E-6,0
ONEWEB-0235,2021-045E,2026-07-19T05:23:14.863776,13.15549954,.00022743,87.8990,252.8100,107.7211,252.4168,0,U,48771,999,24859,.636038E-5,.15E-6,0
ONEWEB-0242,2021-045F,2026-07-19T10:42:43.188480,13.15548644,.00019651,87.8990,252.7632,102.8793,257.2557,0,U,48772,999,24866,.26902644E-3,.114E-5,0
ONEWEB-0241,2021-045G,2026-07-19T14:03:33.514848,13.15539667,.00023783,87.8975,252.7502,103.6126,256.5269,0,U,48773,999,24859,.12629789E-3,.6E-6,0
ONEWEB-0243,2021-045H,2026-07-19T12:59:35.517120,13.15550923,.00019046,87.8982,252.7716,112.6427,247.4905,0,U,48774,999,24861,-.5661479E-4,-.8E-7,0
ONEWEB-0222,2021-045J,2026-07-19T10:46:08.401440,13.15546944,.00023478,87.8982,252.7600,96.1116,264.0282,0,U,48775,999,24864,.61947302E-3,.246E-5,0
ONEWEB-0244,2021-045K,2026-07-19T04:05:42.017280,13.15548727,.00020937,87.8994,252.8119,100.8078,259.3288,0,U,48776,999,24917,-.12232428E-3,-.33E-6,0
ONEWEB-0247,2021-045L,2026-07-19T13:08:43.322496,13.15546892,.00022227,87.8984,252.7647,119.3299,240.8053,0,U,48777,999,24866,-.16104575E-3,-.48E-6,0
ONEWEB-0245,2021-045M,2026-07-19T03:54:16.085088,13.15549668,.00022485,87.8989,252.8233,98.3187,261.8198,0,U,48778,999,24858,-.33322325E-4,0,0
ONEWEB-0229,2021-045N,2026-07-19T09:16:00.842304,13.15548455,.00019325,87.8993,252.7775,98.3552,261.7797,0,U,48779,999,24864,-.1090476E-3,-.28E-6,0
ONEWEB-0228,2021-045P,2026-07-19T04:35:32.867232,13.15548752,.00021594,87.8993,252.8102,100.8641,259.2733,0,U,48780,999,24853,-.91445031E-4,-.22E-6,0
ONEWEB-0232,2021-045Q,2026-07-19T09:27:25.669440,13.15548018,.00021706,87.8992,252.7696,96.9239,263.2138,0,U,48781,999,24888,-.18337515E-3,-.56E-6,0
ONEWEB-0231,2021-045R,2026-07-19T14:24:02.875392,13.15552020,.00027195,87.8976,252.7400,111.3657,248.7764,0,U,48782,999,24860,-.12080012E-2,-.442E-5,0
ONEWEB-0234,2021-045S,2026-07-19T04:21:28.565568,13.15547818,.00026624,87.8994,252.8059,82.8851,277.2582,0,U,48783,999,24868,-.15768926E-3,-.47E-6,0
ONEWEB-0238,2021-045T,2026-07-19T09:50:24.726624,13.15548590,.00023399,87.8995,252.7569,88.6413,271.4985,0,U,48784,999,24861,-.41181819E-3,-.142E-5,0
ONEWEB-0240,2021-045U,2026-07-19T04:52:27.628320,13.15549109,.00023732,87.8990,252.8073,101.1317,259.0081,0,U,48785,999,24861,.32177687E-3,.134E-5,0
ONEWEB-0246,2021-045V,2026-07-19T10:13:03.380448,13.15547879,.00020119,87.8989,252.7664,99.1669,260.9688,0,U,48786,999,24851,.75913892E-4,.41E-6,0
ONEWEB-0210,2021-045W,2026-07-19T09:36:32.824224,13.15548212,.00019415,87.8991,252.7690,122.0165,238.1155,0,U,48787,999,24855,-.36906926E-3,-.126E-5,0
ONEWEB-0214,2021-045X,2026-07-19T13:28:07.908096,13.15546888,.00017424,87.8991,252.7342,101.9953,258.1373,0,U,48788,999,24854,-.40448783E-3,-.139E-5,0
ONEWEB-0221,2021-045Y,2026-07-19T13:38:24.865440,13.15548172,.00021688,87.8989,252.7411,101.3630,258.7744,0,U,48789,999,24863,-.25476417E-3,-.83E-6,0
ONEWEB-0213,2021-045Z,2026-07-19T13:22:26.213376,13.15548437,.00021419,87.8989,252.7462,105.1363,255.0005,0,U,48790,999,24869,-.40201411E-3,-.139E-5,0
ONEWEB-0212,2021-045AA,2026-07-19T09:10:17.997600,13.15546775,.00020401,87.8991,252.7753,97.0127,263.1236,0,U,48791,999,24866,-.55087439E-4,-.8E-7,0
ONEWEB-0227,2021-045AB,2026-07-19T03:40:36.053184,13.15547846,.00020978,87.8991,252.8211,99.0648,261.0720,0,U,48792,999,24858,.11882901E-3,.58E-6,0
ONEWEB-0226,2021-045AC,2026-07-19T05:20:59.811936,13.15547151,.00019907,87.8987,252.8115,103.3266,256.8086,0,U,48793,999,24856,.32112273E-3,.134E-5,0
ONEWEB-0224,2021-045AD,2026-07-19T09:57:05.134464,13.15548789,.00029505,87.8979,252.8058,93.9238,266.2229,0,U,48794,999,24851,-.14349911E-3,-.41E-6,0
ONEWEB-0233,2021-045AE,2026-07-19T04:35:08.631168,13.15550642,.00022917,87.8978,252.8575,102.4748,257.6639,0,U,48795,999,24850,-.4568525E-5,.11E-6,0
ONEWEB-0190,2021-045AF,2026-07-19T13:24:42.976800,13.15548514,.00023849,87.8986,252.7478,113.1882,246.9500,0,U,48796,999,24862,-.44319115E-3,-.154E-5,0
